#aV2019 12  4  0  0  0.00000000     288 DD+AD WGS84 FIT  NGA
## 2082 259200.00000000   300.00000000 58821 0.0000000000000
+   32     1  2  3  4  5  6  7  8  9 10 11 12 13 14 15 16 17
+         18 19 20 21 22 23 24 25 26 27 28 29 30 31 32  0  0
+          0  0  0  0  0  0  0  0  0  0  0  0  0  0  0  0  0
+          0  0  0  0  0  0  0  0  0  0  0  0  0  0  0  0  0
+          0  0  0  0  0  0  0  0  0  0  0  0  0  0  0  0  0
++         2  2  2  2  2  2  2  2  2  2  2  2  2  2  2  2  2
++         2  2  2  2  2  2  2  2  2  2  2  2  2  2  2  0  0
++         0  0  0  0  0  0  0  0  0  0  0  0  0  0  0  0  0
++         0  0  0  0  0  0  0  0  0  0  0  0  0  0  0  0  0
++         0  0  0  0  0  0  0  0  0  0  0  0  0  0  0  0  0
%c cc cc ccc ccc cccc cccc cccc cccc ccccc ccccc ccccc ccccc
%c cc cc ccc ccc cccc cccc cccc cccc ccccc ccccc ccccc ccccc
%f  0.0000000  0.000000000  0.00000000000  0.000000000000000
%f  0.0000000  0.000000000  0.00000000000  0.000000000000000
%i    0    0    0    0      0      0      0      0         0
%i    0    0    0    0      0      0      0      0         0
/*      NGA, ST. LOUIS,MO.                                  
/*   EPHEMERIS COMPUTED FROM 2 DAYS OF DATA                 
/*   EPOCHA v5 SMOOTHER                                     
/*   G1762 IERS2010 SATAF SATAPC                            
*  2019 12  4 12 20  0.00000000
P  1   2860.945682  14651.762605 -22165.040810   -218.646886                    
V  1 -26947.350056   6006.860644    807.672719     -0.124473                    
P  2  18705.093280 -14765.742571  12229.144530   -359.676331                    
V  2  14653.735092  -2048.588222 -26361.071884     -0.075309                    
P  3  11561.440508  21982.035224  -9593.654028    -47.090189                    
V  3  -9990.669690  -7163.511090 -28544.590679     -0.064243                    
P  4   4062.415356  21403.458848  15189.176636    -16.418634                    
V  4  -8054.697913  17617.253095 -22710.972681     -0.046455                    
P  5   6802.900731 -14449.154423  21056.350041     -4.257426                    
V  5  19705.541828  18655.073644   6584.305620     -0.004762                    
P  6  25867.214978  -6095.852737   -109.852645   -143.501808                    
V  6    330.268889   2236.556354 -32110.710195     -0.114081                    
P  7  19606.667791   7753.716408  16717.040341   -162.676258                    
V  7 -19689.086369   6009.020517  20184.517038     -0.081824                    
P  8  -5359.944707  25739.109752  -2736.876152    -15.589268                    
V  8  -3566.700300   2664.937233  31855.341493     -0.012851                    
P  9   9577.211353  15816.046982  19008.192147    -99.715223                    
V  9  -8056.062227  22957.172414 -15008.228905     -0.094914                    
P 10 -20970.594645  -7331.610302 -14660.179267   -159.427910                    
V 10 -11453.553596 -14817.295738  23463.443373     -0.144393                    
P 11   1302.903437  18561.528176 -19557.239346   -429.244897                    
V 11 -19362.400199  14049.083091  12050.019286      0.110855                    
P 12  -6333.414224 -22118.857094 -13637.738726    176.780434                    
V 12  11888.554995  12042.987518 -25295.564576     -0.039982                    
P 13  13067.945065 -22702.417737   4018.276849    -28.810303                    
V 13    283.570584   5879.294039  31409.519624      0.023973                    
P 14 -16639.030435  13709.389216 -15064.215012    -46.803490                    
V 14   5068.623591 -19257.919300 -22816.721493      0.021851                    
P 15   2138.238022 -26028.222241  -3803.158516   -268.081246                    
V 15   4896.423194  -3685.183104  30747.408876      0.026743                    
P 16  -9123.603843  11885.681884  21693.652325    -99.596978                    
V 16 -17765.304232 -21654.115890   4783.000601     -0.038383                    
P 17  15719.850222  -2861.314992 -20776.533099    174.686292                    
V 17  -8587.370388  25948.934620  -9939.940116      0.067962                    
P 18  -6203.117392  16661.206812 -20209.516874    104.477913                    
V 18 -23918.830097   5859.556781  12579.170764      0.024994                    
P 19  17127.182341 -10154.355984 -17879.514299   -230.944815                    
V 19  -7355.700804  20833.358631 -19178.876973      0.051914                    
P 20 -22407.013328 -13612.693612  -4969.062261    527.596598                    
V 20  -2596.220146  -6576.142169  30132.224806      0.000578                    
P 21 -21545.160853  -4905.164596  15372.150378    -76.081806                    
V 21  16834.182132  -7363.750000  22623.170673      0.058248                    
P 22   5671.010185  20717.337664 -15469.564223   -775.677364                    
V 22 -16652.023035 -11536.322546 -21154.222951     -0.021864                    
P 23   3671.937504  22744.486374  13218.221512   -151.642747                    
V 23  -7115.398755  15067.321559 -24980.592089      0.023148                    
P 24  -1072.109773 -16000.035738 -21316.654686     -5.760719                    
V 24  25852.424270  -7026.119525   4365.174905     -0.004075                    
P 25 -17525.120057 -20113.207023  -1443.847570    -17.420243                    
V 25   2785.752633   -479.926589 -31668.341957     -0.000093                    
P 26 -16374.531271   4382.033473  20476.317179     98.354132                    
V 26 -17772.298398 -19045.151885  -9923.295757      0.082298                    
P 27 -12319.403611  21780.502626   8301.557964   -139.987216                    
V 27    808.165965 -10995.145256  29945.514768     -0.117371                    
P 28  19535.639437   8316.237926 -15273.762515    752.219206                    
V 28  11194.294900  17281.109317  22956.598522     -0.018807                    
P 29  -7143.289233 -16984.554380  19090.937915     27.333623                    
V 29   9482.106014 -22343.096462 -16325.949080     -0.098593                    
P 30  25655.380794    368.396915   7279.360776    -98.288844                    
V 30  -8407.768259   4823.196274  29315.792329     -0.085456                    
P 31 -25794.719062   6964.097992   2238.935148     -7.532664                    
V 31  -3278.308435  -1841.583140 -31247.298091     -0.025604                    
P 32 -16219.596368   3650.564039 -20624.317099    145.180817                    
V 32   6448.588328 -25589.584203  -9702.645177      0.116480                    
EOF
